{
"type": "FeatureCollection",
"name": "poligonos_entrenamiento",
"crs": { "type": "name", "properties": { "name": "urn:ogc:def:crs:EPSG::32618" } },
"features": [
{ "type": "Feature", "properties": { "id": 1, "clase": "Vegetacion" }, "geometry": { "type": "MultiPolygon", "coordinates": [ [ [ [ 509871.435714016493876, 548376.007117028813809 ], [ 509894.309812201943714, 548519.787162766093388 ], [ 509907.38072545081377, 548526.32261939055752 ], [ 509992.341661568265408, 548536.12580432719551 ], [ 510136.121707305544987, 548549.196717576007359 ], [ 510240.689013296330813, 548542.661260951659642 ], [ 510410.610885531292297, 548451.164868209743872 ], [ 510404.075428906886373, 548310.652550784638152 ], [ 510328.917677726014517, 548304.11709416017402 ], [ 510240.689013296330813, 548232.22707129153423 ], [ 510136.121707305544987, 548202.81751648162026 ], [ 509985.806204943859484, 548281.242995974724181 ], [ 509871.435714016493876, 548376.007117028813809 ] ] ] ] } },
{ "type": "Feature", "properties": { "id": 1, "clase": "Vegetacion" }, "geometry": { "type": "MultiPolygon", "coordinates": [ [ [ [ 509926.987095324089751, 548608.0158271958353 ], [ 509953.128921821771655, 548817.150439177290536 ], [ 510093.641239246819168, 548813.882710865116678 ], [ 510116.515337432327215, 548761.599057869752869 ], [ 510204.744001862010919, 548679.905850064475089 ], [ 510296.240394603926688, 548670.102665127837099 ], [ 510306.043579540564679, 548594.944913947023451 ], [ 509926.987095324089751, 548608.0158271958353 ] ] ] ] } },
{ "type": "Feature", "properties": { "id": 1, "clase": "Vegetacion" }, "geometry": { "type": "MultiPolygon", "coordinates": [ [ [ [ 510384.469059033610392, 548121.12430867634248 ], [ 510417.146342155698221, 548193.014331544982269 ], [ 510495.571821648802143, 548202.81751648162026 ], [ 510541.32001801970182, 548196.282059857272543 ], [ 510583.800486078485847, 548193.014331544982269 ], [ 510737.383716752403416, 548219.156158042722382 ], [ 510864.82512092863908, 548271.439811038086191 ], [ 510874.628305865218863, 548372.739388716639951 ], [ 511057.621091349050403, 548487.109879644005559 ], [ 511158.920669027604163, 548490.377607956295833 ], [ 511250.417061769519933, 548408.684400151018053 ], [ 511054.353363036876544, 548376.007117028813809 ], [ 511018.40835160255665, 548255.101169477100484 ], [ 511106.637016032240354, 548108.053395427530631 ], [ 511083.762917846732307, 547990.415176187991165 ], [ 510975.927883543772623, 548003.486089436803013 ], [ 510743.91917337680934, 548019.824730997905135 ], [ 510482.500908399932086, 548055.769742432166822 ], [ 510384.469059033610392, 548121.12430867634248 ] ] ] ] } },
{ "type": "Feature", "properties": { "id": 1, "clase": "Vegetacion" }, "geometry": { "type": "MultiPolygon", "coordinates": [ [ [ [ 509573.579346919665113, 548008.361120776506141 ], [ 509502.608879059262108, 548104.678184301359579 ], [ 509548.23275125521468, 548064.123631238238886 ], [ 509644.549814780068118, 547988.083844244945794 ], [ 509776.352112235035747, 548013.43043990933802 ], [ 509862.530537494109012, 548043.84635470667854 ], [ 509923.362367088731844, 547952.598610314773396 ], [ 510039.956707145087421, 547851.212227657088079 ], [ 509892.946452291391324, 547790.380398062407039 ], [ 509680.035048710240517, 547912.044057251652703 ], [ 509573.579346919665113, 548008.361120776506141 ] ] ] ] } },
{ "type": "Feature", "properties": { "id": 1, "clase": "Vegetacion" }, "geometry": { "type": "MultiPolygon", "coordinates": [ [ [ [ 510754.098856786440592, 548803.963212424423546 ], [ 510739.119470488105435, 548774.004439827636816 ], [ 510888.913333471806254, 549103.550938391825184 ], [ 511031.217503306281287, 549140.999404137721285 ], [ 511128.583514245692641, 548991.205541154020466 ], [ 511023.727810157113709, 548916.308609662111849 ], [ 511195.990752588375472, 548938.777689109672792 ], [ 511218.459832035936415, 548863.88075761788059 ], [ 511270.887684080225881, 548774.004439827636816 ], [ 510978.789651261991821, 548706.597201484953985 ], [ 510814.016401979955845, 548729.066280932514928 ], [ 510754.098856786440592, 548803.963212424423546 ] ] ] ] } },
{ "type": "Feature", "properties": { "id": 2, "clase": "Pastos" }, "geometry": { "type": "MultiPolygon", "coordinates": [ [ [ [ 509600.391597760084551, 548656.801012908574194 ], [ 509604.035746338195167, 548795.278658876777627 ], [ 509662.342123587965034, 548857.229184704716317 ], [ 509808.108066712331492, 549119.607882328564301 ], [ 510001.247941352135967, 549148.761070953449234 ], [ 509946.585712680534925, 549097.742990859900601 ], [ 509906.500078321318142, 548868.16163043898996 ], [ 509888.279335430765059, 548769.769618830061518 ], [ 509902.855929743207525, 548671.37760722101666 ], [ 509873.702741118322592, 548558.409001299645752 ], [ 509600.391597760084551, 548656.801012908574194 ] ] ] ] } },
{ "type": "Feature", "properties": { "id": 2, "clase": "Pastos" }, "geometry": { "type": "MultiPolygon", "coordinates": [ [ [ [ 509305.21556293318281, 549126.896179484785534 ], [ 509359.877791604842059, 549196.135002468945459 ], [ 509461.913951791881118, 549327.324351280811243 ], [ 509571.238409135199618, 549352.833391327643767 ], [ 509673.274569322296884, 549400.207322843023576 ], [ 509724.292649415787309, 549156.049368109670468 ], [ 509625.900637806858867, 549137.828625219175592 ], [ 509305.21556293318281, 549126.896179484785534 ] ] ] ] } },
{ "type": "Feature", "properties": { "id": 2, "clase": "Pastos" }, "geometry": { "type": "MultiPolygon", "coordinates": [ [ [ [ 509087.454437879379839, 547112.89090373145882 ], [ 509064.929032418585848, 547169.204417383414693 ], [ 509057.420563931635115, 547364.424598043435253 ], [ 509109.979843340115622, 547525.856670512352139 ], [ 509256.394978835131042, 547597.187121138093062 ], [ 509421.581285547523294, 547811.178473015432246 ], [ 509361.513537652092054, 547687.288742981152609 ], [ 509455.369393738685176, 547537.11937324272003 ], [ 509372.776240382518154, 547582.170184164308012 ], [ 509350.250834921724163, 547439.50928291270975 ], [ 509504.174438903690316, 547330.636489852331579 ], [ 509485.403267686371692, 547142.924777679145336 ], [ 509399.055880086729303, 547030.297750375350006 ], [ 509196.32723093975801, 547127.907840705360286 ], [ 509087.454437879379839, 547112.89090373145882 ] ] ] ] } },
{ "type": "Feature", "properties": { "id": 2, "clase": "Pastos" }, "geometry": { "type": "MultiPolygon", "coordinates": [ [ [ [ 508907.251194193144329, 547811.178473015432246 ], [ 509158.784888505120762, 547882.508923641289584 ], [ 509147.52218577475287, 548085.237572788260877 ], [ 509432.843988277891185, 547875.000455154338852 ], [ 509271.411915809032507, 547657.254869033466093 ], [ 509185.064528209390119, 547604.695589625043795 ], [ 509106.225609096640255, 547529.610904755769297 ], [ 509038.649392714316491, 547615.958292355411686 ], [ 508978.58164481894346, 547664.763337520416826 ], [ 508907.251194193144329, 547811.178473015432246 ] ] ] ] } },
{ "type": "Feature", "properties": { "id": 2, "clase": "Pastos" }, "geometry": { "type": "MultiPolygon", "coordinates": [ [ [ [ 510985.665992728376295, 547799.923368770047091 ], [ 511508.230850830790587, 547486.384453908656724 ], [ 511103.243085801426787, 547590.897425529081374 ], [ 510652.530895688047167, 547878.30809748545289 ], [ 511266.544603958434891, 547865.243976032943465 ], [ 511207.756057421909645, 547956.69282620085869 ], [ 511122.839267980249133, 548322.48822687251959 ], [ 511658.468247535231058, 548361.680591230164282 ], [ 511789.109462060849182, 548237.571437430917285 ], [ 512109.180437648610678, 547701.942457875935361 ], [ 511704.19267261918867, 547767.263065138715319 ], [ 511612.743822451273445, 547669.282154244487174 ], [ 511495.166729378222954, 547492.916514634969644 ], [ 510985.665992728376295, 547799.923368770047091 ] ] ] ] } },
{ "type": "Feature", "properties": { "id": 4, "clase": "Urbano" }, "geometry": { "type": "MultiPolygon", "coordinates": [ [ [ [ 509156.095071683928836, 548792.457556600915268 ], [ 509140.023748601321131, 548796.475387371494435 ], [ 509236.451687096909154, 549101.830525940982625 ], [ 509521.717671813094057, 549101.830525940982625 ], [ 509393.147087152290624, 548732.190095041063614 ], [ 509156.095071683928836, 548792.457556600915268 ] ] ] ] } },
{ "type": "Feature", "properties": { "id": 4, "clase": "Urbano" }, "geometry": { "type": "MultiPolygon", "coordinates": [ [ [ [ 509476.99346828070702, 547847.842798965983093 ], [ 509471.551073100301437, 547869.612379687605426 ], [ 509504.205444182793144, 547940.363517032936215 ], [ 509558.629395986907184, 547981.181480886065401 ], [ 509702.852868267800659, 547891.381960409227759 ], [ 509672.919694775540847, 547888.660762819112279 ], [ 509702.852868267800659, 547812.467230293317698 ], [ 509621.216940561600495, 547812.467230293317698 ], [ 509566.792988757486455, 547910.430343540734611 ], [ 509476.99346828070702, 547847.842798965983093 ] ] ] ] } },
{ "type": "Feature", "properties": { "id": 4, "clase": "Urbano" }, "geometry": { "type": "MultiPolygon", "coordinates": [ [ [ [ 507926.369917020201683, 549694.387606050702743 ], [ 507890.330473146168515, 549896.208491745521314 ], [ 508113.775025165348779, 549809.713826447725296 ], [ 508099.359247615735512, 549780.882271348498762 ], [ 508128.190802714962047, 549701.595494825509377 ], [ 507926.369917020201683, 549694.387606050702743 ] ] ] ] } },
{ "type": "Feature", "properties": { "id": 4, "clase": "Urbano" }, "geometry": { "type": "MultiPolygon", "coordinates": [ [ [ [ 506837.97871202341048, 549528.606164230033755 ], [ 507111.878485466295388, 549766.466493798885494 ], [ 507320.907259935920592, 549651.140273401862942 ], [ 507219.996817088511307, 549615.100829527829774 ], [ 507191.165261989284772, 549564.645608104066923 ], [ 507039.799597718170844, 549550.229830554453656 ], [ 506837.97871202341048, 549528.606164230033755 ] ] ] ] } },
{ "type": "Feature", "properties": { "id": 4, "clase": "Urbano" }, "geometry": { "type": "MultiPolygon", "coordinates": [ [ [ [ 507507.735736978997011, 549588.503719948697835 ], [ 507409.348055202804971, 549702.027968152076937 ], [ 507575.850285900989547, 549876.098482063855045 ], [ 507886.14989765669452, 550004.759296694188379 ], [ 507606.12341875518905, 549762.574233860475942 ], [ 507583.418569114524871, 549626.345136016490869 ], [ 507507.735736978997011, 549588.503719948697835 ] ] ] ] } },
{ "type": "Feature", "properties": { "id": 3, "clase": "Lahar" }, "geometry": { "type": "MultiPolygon", "coordinates": [ [ [ [ 511192.477544636232778, 547527.943134538480081 ], [ 511542.088987401861232, 547409.613107756245881 ], [ 511794.884953709319234, 547172.953054191893898 ], [ 512069.195470340840984, 546984.700738856568933 ], [ 512020.787732111755759, 546828.720249007223174 ], [ 512026.166369692771696, 546672.739759157993831 ], [ 511967.001356301654596, 546613.574745766818523 ], [ 511811.020866452367045, 546575.92428269982338 ], [ 511638.904463860031683, 546694.254309481941164 ], [ 511687.312202089116909, 546796.448423521127552 ], [ 511735.719940318202134, 546887.885262398398481 ], [ 511762.613128223281819, 546973.943463694537058 ], [ 511644.28310144104762, 547027.729839504580013 ], [ 511310.807571418466978, 547307.418993717059493 ], [ 511208.61345737928059, 547506.428584214532748 ], [ 511192.477544636232778, 547527.943134538480081 ] ] ] ] } },
{ "type": "Feature", "properties": { "id": 3, "clase": "Lahar" }, "geometry": { "type": "MultiPolygon", "coordinates": [ [ [ [ 509595.022183076303918, 547404.23447017534636 ], [ 509444.420330808032304, 547614.001335834618658 ], [ 509487.449431456101593, 547780.73910084599629 ], [ 509740.245397763559595, 547683.923624387825839 ], [ 509595.022183076303918, 547404.23447017534636 ] ] ] ] } },
{ "type": "Feature", "properties": { "id": 3, "clase": "Lahar" }, "geometry": { "type": "MultiPolygon", "coordinates": [ [ [ [ 511144.069806407147553, 549265.243073204648681 ], [ 511122.555256083083805, 549630.990428713383153 ], [ 511488.302611591760069, 549786.970918562612496 ], [ 511719.584027575212531, 549550.310864998260513 ], [ 511574.360812887898646, 549598.718603227287531 ], [ 511601.254000792978331, 549512.660401931148954 ], [ 511558.224900144909043, 549383.57309998688288 ], [ 511456.030786105722655, 549259.864435623632744 ], [ 511294.671658675419167, 549200.699422232573852 ], [ 511144.069806407147553, 549265.243073204648681 ] ] ] ] } },
{ "type": "Feature", "properties": { "id": 3, "clase": "Lahar" }, "geometry": { "type": "MultiPolygon", "coordinates": [ [ [ [ 511676.554926927085035, 548786.544328494812362 ], [ 511660.419014184095431, 548813.437516399892047 ], [ 511854.049967100436334, 549362.058549662819132 ], [ 511977.758631463628262, 549383.57309998688288 ], [ 511811.020866452367045, 549125.398496098467149 ], [ 511811.020866452367045, 549050.09756996424403 ], [ 511940.108168396574911, 549136.155771260499023 ], [ 512042.302282435761299, 549146.913046422414482 ], [ 512069.195470340840984, 549103.883945774403401 ], [ 512241.311872933118138, 549114.641220936435275 ], [ 511864.807242262468208, 548969.41800624912139 ], [ 511891.700430167489685, 548840.330704304855317 ], [ 511676.554926927085035, 548786.544328494812362 ] ] ] ] } }
]
}
